CCSDS_OMM_VERS = 2.0
CREATION_DATE  = 
ORIGINATOR     = 

OBJECT_NAME    = STARLINK-36380
OBJECT_ID      = 2026-059Z
CENTER_NAME    = EARTH
REF_FRAME      = TEME
TIME_SYSTEM    = UTC
MEAN_ELEMENT_THEORY = SGP/SGP4

EPOCH          = 2026-03-31T16:00:01.999584
MEAN_MOTION    = 15.82936644
ECCENTRICITY   = .0000761
INCLINATION    = 53.1592
RA_OF_ASC_NODE = 252.5705
ARG_OF_PERICENTER = 67.0637
MEAN_ANOMALY   = 229.5322

EPHEMERIS_TYPE = 0
CLASSIFICATION_TYPE = U
NORAD_CAT_ID   = 68344
ELEMENT_SET_NO = 999
REV_AT_EPOCH   = 257
BSTAR          = -.10483E-1
MEAN_MOTION_DOT = -.1978563E-1
MEAN_MOTION_DDOT = 0

CCSDS_OMM_VERS = 2.0
CREATION_DATE  = 
ORIGINATOR     = 

OBJECT_NAME    = STARLINK-37214
OBJECT_ID      = 2026-059AA
CENTER_NAME    = EARTH
REF_FRAME      = TEME
TIME_SYSTEM    = UTC
MEAN_ELEMENT_THEORY = SGP/SGP4

EPOCH          = 2026-03-31T16:00:01.999584
MEAN_MOTION    = 15.83790224
ECCENTRICITY   = .0000591
INCLINATION    = 53.1593
RA_OF_ASC_NODE = 252.5383
ARG_OF_PERICENTER = 65.4106
MEAN_ANOMALY   = 246.4881

EPHEMERIS_TYPE = 0
CLASSIFICATION_TYPE = U
NORAD_CAT_ID   = 68345
ELEMENT_SET_NO = 999
REV_AT_EPOCH   = 257
BSTAR          = -.10059E-1
MEAN_MOTION_DOT = -.1977767E-1
MEAN_MOTION_DDOT = 0

CCSDS_OMM_VERS = 2.0
CREATION_DATE  = 
ORIGINATOR     = 

OBJECT_NAME    = STARLINK-37169
OBJECT_ID      = 2026-059AB
CENTER_NAME    = EARTH
REF_FRAME      = TEME
TIME_SYSTEM    = UTC
MEAN_ELEMENT_THEORY = SGP/SGP4

EPOCH          = 2026-03-31T16:00:01.999584
MEAN_MOTION    = 15.83992471
ECCENTRICITY   = .0000643
INCLINATION    = 53.1592
RA_OF_ASC_NODE = 252.5304
ARG_OF_PERICENTER = 75.5653
MEAN_ANOMALY   = 240.0732

EPHEMERIS_TYPE = 0
CLASSIFICATION_TYPE = U
NORAD_CAT_ID   = 68346
ELEMENT_SET_NO = 999
REV_AT_EPOCH   = 257
BSTAR          = -.99069E-2
MEAN_MOTION_DOT = -.1968431E-1
MEAN_MOTION_DDOT = 0

CCSDS_OMM_VERS = 2.0
CREATION_DATE  = 
ORIGINATOR     = 

OBJECT_NAME    = STARLINK-37136
OBJECT_ID      = 2026-059AC
CENTER_NAME    = EARTH
REF_FRAME      = TEME
TIME_SYSTEM    = UTC
MEAN_ELEMENT_THEORY = SGP/SGP4

EPOCH          = 2026-03-31T16:00:01.999584
MEAN_MOTION    = 15.84180643
ECCENTRICITY   = .0000681
INCLINATION    = 53.1593
RA_OF_ASC_NODE = 252.5226
ARG_OF_PERICENTER = 79.0676
MEAN_ANOMALY   = 240.3322

EPHEMERIS_TYPE = 0
CLASSIFICATION_TYPE = U
NORAD_CAT_ID   = 68347
ELEMENT_SET_NO = 999
REV_AT_EPOCH   = 257
BSTAR          = -.98087E-2
MEAN_MOTION_DOT = -.1966979E-1
MEAN_MOTION_DDOT = 0

CCSDS_OMM_VERS = 2.0
CREATION_DATE  = 
ORIGINATOR     = 

OBJECT_NAME    = STARLINK-37182
OBJECT_ID      = 2026-059AD
CENTER_NAME    = EARTH
REF_FRAME      = TEME
TIME_SYSTEM    = UTC
MEAN_ELEMENT_THEORY = SGP/SGP4

EPOCH          = 2026-03-31T16:00:01.999584
MEAN_MOTION    = 15.83565641
ECCENTRICITY   = .000077
INCLINATION    = 53.1593
RA_OF_ASC_NODE = 252.5461
ARG_OF_PERICENTER = 69.8164
MEAN_ANOMALY   = 238.3665

EPHEMERIS_TYPE = 0
CLASSIFICATION_TYPE = U
NORAD_CAT_ID   = 68348
ELEMENT_SET_NO = 999
REV_AT_EPOCH   = 257
BSTAR          = -.10274E-1
MEAN_MOTION_DOT = -.199557E-1
MEAN_MOTION_DDOT = 0

CCSDS_OMM_VERS = 2.0
CREATION_DATE  = 
ORIGINATOR     = 

OBJECT_NAME    = STARLINK-37183
OBJECT_ID      = 2026-059AE
CENTER_NAME    = EARTH
REF_FRAME      = TEME
TIME_SYSTEM    = UTC
MEAN_ELEMENT_THEORY = SGP/SGP4

EPOCH          = 2026-03-31T16:00:01.999584
MEAN_MOTION    = 15.84374138
ECCENTRICITY   = .0000776
INCLINATION    = 53.1593
RA_OF_ASC_NODE = 252.5151
ARG_OF_PERICENTER = 74.3099
MEAN_ANOMALY   = 248.7937

EPHEMERIS_TYPE = 0
CLASSIFICATION_TYPE = U
NORAD_CAT_ID   = 68349
ELEMENT_SET_NO = 999
REV_AT_EPOCH   = 257
BSTAR          = -.96985E-2
MEAN_MOTION_DOT = -.1963803E-1
MEAN_MOTION_DDOT = 0

CCSDS_OMM_VERS = 2.0
CREATION_DATE  = 
ORIGINATOR     = 

OBJECT_NAME    = CENTISPACE-1 OBJECT A
OBJECT_ID      = 2026-060A
CENTER_NAME    = EARTH
REF_FRAME      = TEME
TIME_SYSTEM    = UTC
MEAN_ELEMENT_THEORY = SGP/SGP4

EPOCH          = 2026-03-31T20:29:43.612800
MEAN_MOTION    = 14.74886842
ECCENTRICITY   = .0013005
INCLINATION    = 54.9826
RA_OF_ASC_NODE = 351.2044
ARG_OF_PERICENTER = 316.2807
MEAN_ANOMALY   = 43.7161

EPHEMERIS_TYPE = 0
CLASSIFICATION_TYPE = U
NORAD_CAT_ID   = 68350
ELEMENT_SET_NO = 999
REV_AT_EPOCH   = 136
BSTAR          = .33565E-3
MEAN_MOTION_DOT = .2063E-4
MEAN_MOTION_DDOT = 0

CCSDS_OMM_VERS = 2.0
CREATION_DATE  = 
ORIGINATOR     = 

OBJECT_NAME    = CENTISPACE-1 OBJECT B
OBJECT_ID      = 2026-060B
CENTER_NAME    = EARTH
REF_FRAME      = TEME
TIME_SYSTEM    = UTC
MEAN_ELEMENT_THEORY = SGP/SGP4

EPOCH          = 2026-03-31T20:29:25.600992
MEAN_MOTION    = 14.74925935
ECCENTRICITY   = .0013242
INCLINATION    = 54.9826
RA_OF_ASC_NODE = 351.2032
ARG_OF_PERICENTER = 316.7104
MEAN_ANOMALY   = 43.2854

EPHEMERIS_TYPE = 0
CLASSIFICATION_TYPE = U
NORAD_CAT_ID   = 68351
ELEMENT_SET_NO = 999
REV_AT_EPOCH   = 136
BSTAR          = .33906E-3
MEAN_MOTION_DOT = .2088E-4
MEAN_MOTION_DDOT = 0

CCSDS_OMM_VERS = 2.0
CREATION_DATE  = 
ORIGINATOR     = 

OBJECT_NAME    = CENTISPACE-1 OBJECT C
OBJECT_ID      = 2026-060C
CENTER_NAME    = EARTH
REF_FRAME      = TEME
TIME_SYSTEM    = UTC
MEAN_ELEMENT_THEORY = SGP/SGP4

EPOCH          = 2026-03-31T20:27:48.729312
MEAN_MOTION    = 14.75101089
ECCENTRICITY   = .00125
INCLINATION    = 54.9798
RA_OF_ASC_NODE = 351.1972
ARG_OF_PERICENTER = 322.0503
MEAN_ANOMALY   = 37.9615

EPHEMERIS_TYPE = 0
CLASSIFICATION_TYPE = U
NORAD_CAT_ID   = 68352
ELEMENT_SET_NO = 999
REV_AT_EPOCH   = 136
BSTAR          = .43578E-4
MEAN_MOTION_DOT = .87E-6
MEAN_MOTION_DDOT = 0

CCSDS_OMM_VERS = 2.0
CREATION_DATE  = 
ORIGINATOR     = 

OBJECT_NAME    = CENTISPACE-1 OBJECT D
OBJECT_ID      = 2026-060D
CENTER_NAME    = EARTH
REF_FRAME      = TEME
TIME_SYSTEM    = UTC
MEAN_ELEMENT_THEORY = SGP/SGP4

EPOCH          = 2026-03-31T12:19:36.304032
MEAN_MOTION    = 14.75128916
ECCENTRICITY   = .00132122
INCLINATION    = 54.9893
RA_OF_ASC_NODE = 352.5746
ARG_OF_PERICENTER = 325.1986
MEAN_ANOMALY   = 34.8148

EPHEMERIS_TYPE = 0
CLASSIFICATION_TYPE = U
NORAD_CAT_ID   = 68353
ELEMENT_SET_NO = 999
REV_AT_EPOCH   = 131
BSTAR          = .43489466E-4
MEAN_MOTION_DOT = .86E-6
MEAN_MOTION_DDOT = 0

CCSDS_OMM_VERS = 2.0
CREATION_DATE  = 
ORIGINATOR     = 

OBJECT_NAME    = CENTISPACE-1 OBJECT E
OBJECT_ID      = 2026-060E
CENTER_NAME    = EARTH
REF_FRAME      = TEME
TIME_SYSTEM    = UTC
MEAN_ELEMENT_THEORY = SGP/SGP4

EPOCH          = 2026-03-31T20:26:55.478400
MEAN_MOTION    = 14.75201299
ECCENTRICITY   = .0013303
INCLINATION    = 54.9769
RA_OF_ASC_NODE = 351.1879
ARG_OF_PERICENTER = 323.1045
MEAN_ANOMALY   = 36.9038

EPHEMERIS_TYPE = 0
CLASSIFICATION_TYPE = U
NORAD_CAT_ID   = 68354
ELEMENT_SET_NO = 999
REV_AT_EPOCH   = 136
BSTAR          = .4312E-4
MEAN_MOTION_DOT = .84E-6
MEAN_MOTION_DDOT = 0

CCSDS_OMM_VERS = 2.0
CREATION_DATE  = 
ORIGINATOR     = 

OBJECT_NAME    = CENTISPACE-1 OBJECT F
OBJECT_ID      = 2026-060F
CENTER_NAME    = EARTH
REF_FRAME      = TEME
TIME_SYSTEM    = UTC
MEAN_ELEMENT_THEORY = SGP/SGP4

EPOCH          = 2026-03-31T20:26:37.248000
MEAN_MOTION    = 14.75237810
ECCENTRICITY   = .0013857
INCLINATION    = 54.9764
RA_OF_ASC_NODE = 351.1868
ARG_OF_PERICENTER = 322.0355
MEAN_ANOMALY   = 37.9667

EPHEMERIS_TYPE = 0
CLASSIFICATION_TYPE = U
NORAD_CAT_ID   = 68355
ELEMENT_SET_NO = 999
REV_AT_EPOCH   = 136
BSTAR          = .43812E-4
MEAN_MOTION_DOT = .89E-6
MEAN_MOTION_DDOT = 0

